{
  "norad_id": 55327,
  "name": "HAWK-6A",
  "history": [
    {
      "epoch": "2026-03-28T01:04:32.923200Z",
      "apogee_km": 501.53377070994884,
      "perigee_km": 497.3097116822819,
      "latitude_deg": 5.649217885643763e-05,
      "longitude_deg": -98.06533183956991,
      "height_km": 500.95291740065903,
      "semi_major_axis_km": 6877.558741196115,
      "eccentricity": 0.00030709,
      "inclination_deg": 40.4987,
      "raan_deg": 103.5427,
      "arg_perigee_deg": 195.8659,
      "mean_anomaly_deg": 164.2055,
      "mean_motion_rev_day": 15.22128436
    },
    {
      "epoch": "2026-03-30T00:18:54.139104Z",
      "apogee_km": 501.6780634643619,
      "perigee_km": 496.9628786222138,
      "latitude_deg": 4.286847363228941e-05,
      "longitude_deg": -100.06059325494356,
      "height_km": 500.8908033201462,
      "semi_major_axis_km": 6877.457471043287,
      "eccentricity": 0.0003428,
      "inclination_deg": 40.4991,
      "raan_deg": 92.0759,
      "arg_perigee_deg": 208.5936,
      "mean_anomaly_deg": 151.4686,
      "mean_motion_rev_day": 15.22162056
    },
    {
      "epoch": "2026-03-30T06:36:48.703680Z",
      "apogee_km": 501.705744077125,
      "perigee_km": 496.9149142676242,
      "latitude_deg": -3.62064203117417e-05,
      "longitude_deg": 163.6743927717264,
      "height_km": 500.88092456141686,
      "semi_major_axis_km": 6877.447329172374,
      "eccentricity": 0.0003483,
      "inclination_deg": 40.4992,
      "raan_deg": 90.547,
      "arg_perigee_deg": 210.2039,
      "mean_anomaly_deg": 149.8569,
      "mean_motion_rev_day": 15.22165423
    },
    {
      "epoch": "2026-03-30T06:36:48.705408Z",
      "apogee_km": 501.70546897923214,
      "perigee_km": 496.9151893655171,
      "latitude_deg": -3.7718610592355235e-05,
      "longitude_deg": 163.6743837911905,
      "height_km": 500.88068685189216,
      "semi_major_axis_km": 6877.447329172374,
      "eccentricity": 0.00034826,
      "inclination_deg": 40.4992,
      "raan_deg": 90.547,
      "arg_perigee_deg": 210.2039,
      "mean_anomaly_deg": 149.8569,
      "mean_motion_rev_day": 15.22165423
    },
    {
      "epoch": "2026-03-31T07:48:26.203392Z",
      "apogee_km": 501.79642748187507,
      "perigee_km": 496.7154095936594,
      "latitude_deg": 1.5899081100716463e-06,
      "longitude_deg": 138.61741873296975,
      "height_km": 500.8051180999596,
      "semi_major_axis_km": 6877.3929185377665,
      "eccentricity": 0.0003694,
      "inclination_deg": 40.4991,
      "raan_deg": 84.4309,
      "arg_perigee_deg": 216.2595,
      "mean_anomaly_deg": 143.7964,
      "mean_motion_rev_day": 15.22183487
    },
    {
      "epoch": "2026-04-01T15:17:56.652000Z",
      "apogee_km": 501.8591187434322,
      "perigee_km": 496.53056203349934,
      "latitude_deg": 4.032015801973304e-05,
      "longitude_deg": 17.30227445272265,
      "height_km": 500.5975322481431,
      "semi_major_axis_km": 6877.331840388466,
      "eccentricity": 0.0003874,
      "inclination_deg": 40.4994,
      "raan_deg": 76.7859,
      "arg_perigee_deg": 224.4589,
      "mean_anomaly_deg": 135.591,
      "mean_motion_rev_day": 15.22203765
    }
  ]
}